LIME                    
1 62648U 25009AR  26068.73906781  .00013254  00000+0  47723-3 0  9995
2 62648  97.3985 151.4831 0001635  35.9029 324.2320 15.28703313 63766
STARLINK-33854          
1 63635U 25083B   26068.19480011  .00044577  00000+0  16212-2 0  9997
2 63635  43.0017   7.7991 0001241 252.8890 107.1826 15.27547745 49998
